[{"OBJECT_NAME":"IRIDE-MS2-HEO-5","OBJECT_ID":"2025-135AV","EPOCH":"2026-03-09T22:29:41.176896","MEAN_MOTION":14.9349765,"ECCENTRICITY":0.0001273,"INCLINATION":97.7596,"RA_OF_ASC_NODE":184.3874,"ARG_OF_PERICENTER":293.2416,"MEAN_ANOMALY":66.867,"EPHEMERIS_TYPE":0,"CLASSIFICATION_TYPE":"U","NORAD_CAT_ID":64571,"ELEMENT_SET_NO":999,"REV_AT_EPOCH":3907,"BSTAR":0.00038834386,"MEAN_MOTION_DOT":4.032e-5,"MEAN_MOTION_DDOT":0},{"OBJECT_NAME":"CZ-2C DEB","OBJECT_ID":"2009-061C","EPOCH":"2026-03-09T15:20:14.637120","MEAN_MOTION":14.99171478,"ECCENTRICITY":0.0032615,"INCLINATION":97.8461,"RA_OF_ASC_NODE":101.0533,"ARG_OF_PERICENTER":313.5449,"MEAN_ANOMALY":164.4427,"EPHEMERIS_TYPE":0,"CLASSIFICATION_TYPE":"U","NORAD_CAT_ID":36090,"ELEMENT_SET_NO":999,"REV_AT_EPOCH":86976,"BSTAR":0.0014405,"MEAN_MOTION_DOT":0.00017697,"MEAN_MOTION_DDOT":0}]
